<?xml version="1.0" encoding="UTF-8"?>
<ndm xmlns:xsi="http://www.w3.org/2001/XMLSchema-instance" xsi:noNamespaceSchemaLocation="https://sanaregistry.org/r/ndmxml_unqualified/ndmxml-2.0.0-master-2.0.xsd">
<omm id="CCSDS_OMM_VERS" version="2.0">
<header><CREATION_DATE/><ORIGINATOR/></header><body><segment><metadata><OBJECT_NAME>ONEWEB-0128</OBJECT_NAME><OBJECT_ID>2020-100S</OBJECT_ID><CENTER_NAME>EARTH</CENTER_NAME><REF_FRAME>TEME</REF_FRAME><TIME_SYSTEM>UTC</TIME_SYSTEM><MEAN_ELEMENT_THEORY>SGP4</MEAN_ELEMENT_THEORY></metadata><data><meanElements><EPOCH>2026-01-25T11:12:38.771424</EPOCH><MEAN_MOTION>13.12443108</MEAN_MOTION><ECCENTRICITY>.00015014</ECCENTRICITY><INCLINATION>87.8930</INCLINATION><RA_OF_ASC_NODE>19.0282</RA_OF_ASC_NODE><ARG_OF_PERICENTER>83.3381</ARG_OF_PERICENTER><MEAN_ANOMALY>276.7919</MEAN_ANOMALY></meanElements><tleParameters><EPHEMERIS_TYPE>0</EPHEMERIS_TYPE><CLASSIFICATION_TYPE>U</CLASSIFICATION_TYPE><NORAD_CAT_ID>47274</NORAD_CAT_ID><ELEMENT_SET_NO>999</ELEMENT_SET_NO><REV_AT_EPOCH>24602</REV_AT_EPOCH><BSTAR>-.1045851E-2</BSTAR><MEAN_MOTION_DOT>-.364E-5</MEAN_MOTION_DOT><MEAN_MOTION_DDOT>0</MEAN_MOTION_DDOT></tleParameters></data></segment></body></omm>
<omm id="CCSDS_OMM_VERS" version="2.0">
<header><CREATION_DATE/><ORIGINATOR/></header><body><segment><metadata><OBJECT_NAME>ONEWEB-0129</OBJECT_NAME><OBJECT_ID>2020-100T</OBJECT_ID><CENTER_NAME>EARTH</CENTER_NAME><REF_FRAME>TEME</REF_FRAME><TIME_SYSTEM>UTC</TIME_SYSTEM><MEAN_ELEMENT_THEORY>SGP4</MEAN_ELEMENT_THEORY></metadata><data><meanElements><EPOCH>2026-01-25T21:42:04.384224</EPOCH><MEAN_MOTION>13.12442245</MEAN_MOTION><ECCENTRICITY>.00019932</ECCENTRICITY><INCLINATION>87.8942</INCLINATION><RA_OF_ASC_NODE>18.9005</RA_OF_ASC_NODE><ARG_OF_PERICENTER>122.0197</ARG_OF_PERICENTER><MEAN_ANOMALY>238.1126</MEAN_ANOMALY></meanElements><tleParameters><EPHEMERIS_TYPE>0</EPHEMERIS_TYPE><CLASSIFICATION_TYPE>U</CLASSIFICATION_TYPE><NORAD_CAT_ID>47275</NORAD_CAT_ID><ELEMENT_SET_NO>999</ELEMENT_SET_NO><REV_AT_EPOCH>24601</REV_AT_EPOCH><BSTAR>.23665929E-3</BSTAR><MEAN_MOTION_DOT>.98E-6</MEAN_MOTION_DOT><MEAN_MOTION_DDOT>0</MEAN_MOTION_DDOT></tleParameters></data></segment></body></omm>
<omm id="CCSDS_OMM_VERS" version="2.0">
<header><CREATION_DATE/><ORIGINATOR/></header><body><segment><metadata><OBJECT_NAME>ONEWEB-0130</OBJECT_NAME><OBJECT_ID>2020-100U</OBJECT_ID><CENTER_NAME>EARTH</CENTER_NAME><REF_FRAME>TEME</REF_FRAME><TIME_SYSTEM>UTC</TIME_SYSTEM><MEAN_ELEMENT_THEORY>SGP4</MEAN_ELEMENT_THEORY></metadata><data><meanElements><EPOCH>2026-01-25T22:21:04.497120</EPOCH><MEAN_MOTION>13.12443354</MEAN_MOTION><ECCENTRICITY>.00016728</ECCENTRICITY><INCLINATION>87.8937</INCLINATION><RA_OF_ASC_NODE>18.8891</RA_OF_ASC_NODE><ARG_OF_PERICENTER>89.4314</ARG_OF_PERICENTER><MEAN_ANOMALY>270.7006</MEAN_ANOMALY></meanElements><tleParameters><EPHEMERIS_TYPE>0</EPHEMERIS_TYPE><CLASSIFICATION_TYPE>U</CLASSIFICATION_TYPE><NORAD_CAT_ID>47276</NORAD_CAT_ID><ELEMENT_SET_NO>999</ELEMENT_SET_NO><REV_AT_EPOCH>24598</REV_AT_EPOCH><BSTAR>-.15764454E-2</BSTAR><MEAN_MOTION_DOT>-.554E-5</MEAN_MOTION_DOT><MEAN_MOTION_DDOT>0</MEAN_MOTION_DDOT></tleParameters></data></segment></body></omm>
<omm id="CCSDS_OMM_VERS" version="2.0">
<header><CREATION_DATE/><ORIGINATOR/></header><body><segment><metadata><OBJECT_NAME>ONEWEB-0131</OBJECT_NAME><OBJECT_ID>2020-100V</OBJECT_ID><CENTER_NAME>EARTH</CENTER_NAME><REF_FRAME>TEME</REF_FRAME><TIME_SYSTEM>UTC</TIME_SYSTEM><MEAN_ELEMENT_THEORY>SGP4</MEAN_ELEMENT_THEORY></metadata><data><meanElements><EPOCH>2026-01-25T11:17:32.292960</EPOCH><MEAN_MOTION>13.12443746</MEAN_MOTION><ECCENTRICITY>.00017093</ECCENTRICITY><INCLINATION>87.8940</INCLINATION><RA_OF_ASC_NODE>19.0114</RA_OF_ASC_NODE><ARG_OF_PERICENTER>86.8051</ARG_OF_PERICENTER><MEAN_ANOMALY>273.3273</MEAN_ANOMALY></meanElements><tleParameters><EPHEMERIS_TYPE>0</EPHEMERIS_TYPE><CLASSIFICATION_TYPE>U</CLASSIFICATION_TYPE><NORAD_CAT_ID>47277</NORAD_CAT_ID><ELEMENT_SET_NO>999</ELEMENT_SET_NO><REV_AT_EPOCH>24596</REV_AT_EPOCH><BSTAR>-.68625678E-3</BSTAR><MEAN_MOTION_DOT>-.234E-5</MEAN_MOTION_DOT><MEAN_MOTION_DDOT>0</MEAN_MOTION_DDOT></tleParameters></data></segment></body></omm>
<omm id="CCSDS_OMM_VERS" version="2.0">
<header><CREATION_DATE/><ORIGINATOR/></header><body><segment><metadata><OBJECT_NAME>ONEWEB-0132</OBJECT_NAME><OBJECT_ID>2020-100W</OBJECT_ID><CENTER_NAME>EARTH</CENTER_NAME><REF_FRAME>TEME</REF_FRAME><TIME_SYSTEM>UTC</TIME_SYSTEM><MEAN_ELEMENT_THEORY>SGP4</MEAN_ELEMENT_THEORY></metadata><data><meanElements><EPOCH>2026-01-25T22:57:41.544576</EPOCH><MEAN_MOTION>13.12441998</MEAN_MOTION><ECCENTRICITY>.00017189</ECCENTRICITY><INCLINATION>87.8934</INCLINATION><RA_OF_ASC_NODE>18.9148</RA_OF_ASC_NODE><ARG_OF_PERICENTER>85.6177</ARG_OF_PERICENTER><MEAN_ANOMALY>274.5148</MEAN_ANOMALY></meanElements><tleParameters><EPHEMERIS_TYPE>0</EPHEMERIS_TYPE><CLASSIFICATION_TYPE>U</CLASSIFICATION_TYPE><NORAD_CAT_ID>47278</NORAD_CAT_ID><ELEMENT_SET_NO>999</ELEMENT_SET_NO><REV_AT_EPOCH>24592</REV_AT_EPOCH><BSTAR>.11234762E-2</BSTAR><MEAN_MOTION_DOT>.417E-5</MEAN_MOTION_DOT><MEAN_MOTION_DDOT>0</MEAN_MOTION_DDOT></tleParameters></data></segment></body></omm>
<omm id="CCSDS_OMM_VERS" version="2.0">
<header><CREATION_DATE/><ORIGINATOR/></header><body><segment><metadata><OBJECT_NAME>ONEWEB-0133</OBJECT_NAME><OBJECT_ID>2020-100X</OBJECT_ID><CENTER_NAME>EARTH</CENTER_NAME><REF_FRAME>TEME</REF_FRAME><TIME_SYSTEM>UTC</TIME_SYSTEM><MEAN_ELEMENT_THEORY>SGP4</MEAN_ELEMENT_THEORY></metadata><data><meanElements><EPOCH>2026-01-26T04:51:13.830624</EPOCH><MEAN_MOTION>13.12441211</MEAN_MOTION><ECCENTRICITY>.00016537</ECCENTRICITY><INCLINATION>87.8939</INCLINATION><RA_OF_ASC_NODE>18.8278</RA_OF_ASC_NODE><ARG_OF_PERICENTER>83.8974</ARG_OF_PERICENTER><MEAN_ANOMALY>276.2343</MEAN_ANOMALY></meanElements><tleParameters><EPHEMERIS_TYPE>0</EPHEMERIS_TYPE><CLASSIFICATION_TYPE>U</CLASSIFICATION_TYPE><NORAD_CAT_ID>47279</NORAD_CAT_ID><ELEMENT_SET_NO>999</ELEMENT_SET_NO><REV_AT_EPOCH>24611</REV_AT_EPOCH><BSTAR>.10086845E-2</BSTAR><MEAN_MOTION_DOT>.376E-5</MEAN_MOTION_DOT><MEAN_MOTION_DDOT>0</MEAN_MOTION_DDOT></tleParameters></data></segment></body></omm>
<omm id="CCSDS_OMM_VERS" version="2.0">
<header><CREATION_DATE/><ORIGINATOR/></header><body><segment><metadata><OBJECT_NAME>ONEWEB-0134</OBJECT_NAME><OBJECT_ID>2020-100Y</OBJECT_ID><CENTER_NAME>EARTH</CENTER_NAME><REF_FRAME>TEME</REF_FRAME><TIME_SYSTEM>UTC</TIME_SYSTEM><MEAN_ELEMENT_THEORY>SGP4</MEAN_ELEMENT_THEORY></metadata><data><meanElements><EPOCH>2026-01-25T22:38:10.247424</EPOCH><MEAN_MOTION>13.12444231</MEAN_MOTION><ECCENTRICITY>.00015174</ECCENTRICITY><INCLINATION>87.8939</INCLINATION><RA_OF_ASC_NODE>18.8760</RA_OF_ASC_NODE><ARG_OF_PERICENTER>90.4607</ARG_OF_PERICENTER><MEAN_ANOMALY>269.6695</MEAN_ANOMALY></meanElements><tleParameters><EPHEMERIS_TYPE>0</EPHEMERIS_TYPE><CLASSIFICATION_TYPE>U</CLASSIFICATION_TYPE><NORAD_CAT_ID>47280</NORAD_CAT_ID><ELEMENT_SET_NO>999</ELEMENT_SET_NO><REV_AT_EPOCH>24605</REV_AT_EPOCH><BSTAR>-.43963269E-3</BSTAR><MEAN_MOTION_DOT>-.145E-5</MEAN_MOTION_DOT><MEAN_MOTION_DDOT>0</MEAN_MOTION_DDOT></tleParameters></data></segment></body></omm>
<omm id="CCSDS_OMM_VERS" version="2.0">
<header><CREATION_DATE/><ORIGINATOR/></header><body><segment><metadata><OBJECT_NAME>ONEWEB-0135</OBJECT_NAME><OBJECT_ID>2020-100Z</OBJECT_ID><CENTER_NAME>EARTH</CENTER_NAME><REF_FRAME>TEME</REF_FRAME><TIME_SYSTEM>UTC</TIME_SYSTEM><MEAN_ELEMENT_THEORY>SGP4</MEAN_ELEMENT_THEORY></metadata><data><meanElements><EPOCH>2026-01-26T05:15:49.882176</EPOCH><MEAN_MOTION>13.12442181</MEAN_MOTION><ECCENTRICITY>.00013862</ECCENTRICITY><INCLINATION>87.8938</INCLINATION><RA_OF_ASC_NODE>18.8596</RA_OF_ASC_NODE><ARG_OF_PERICENTER>88.3228</ARG_OF_PERICENTER><MEAN_ANOMALY>271.8060</MEAN_ANOMALY></meanElements><tleParameters><EPHEMERIS_TYPE>0</EPHEMERIS_TYPE><CLASSIFICATION_TYPE>U</CLASSIFICATION_TYPE><NORAD_CAT_ID>47281</NORAD_CAT_ID><ELEMENT_SET_NO>999</ELEMENT_SET_NO><REV_AT_EPOCH>24611</REV_AT_EPOCH><BSTAR>-.70784545E-3</BSTAR><MEAN_MOTION_DOT>-.242E-5</MEAN_MOTION_DOT><MEAN_MOTION_DDOT>0</MEAN_MOTION_DDOT></tleParameters></data></segment></body></omm>

</ndm>
