ONEWEB-0128             
1 47274U 20100S   26025.46711541 -.00000364  00000+0 -10459-2 0  9996
2 47274  87.8930  19.0282 0001501  83.3381 276.7919 13.12443108246028
ONEWEB-0129             
1 47275U 20100T   26025.90421741  .00000098  00000+0  23666-3 0  9993
2 47275  87.8942  18.9005 0001993 122.0197 238.1126 13.12442245246016
ONEWEB-0130             
1 47276U 20100U   26025.93130205 -.00000554  00000+0 -15764-2 0  9997
2 47276  87.8937  18.8891 0001672  89.4314 270.7006 13.12443354245980
ONEWEB-0131             
1 47277U 20100V   26025.47051265 -.00000234  00000+0 -68626-3 0  9996
2 47277  87.8940  19.0114 0001709  86.8051 273.3273 13.12443746245964
ONEWEB-0132             
1 47278U 20100W   26025.95673084  .00000417  00000+0  11235-2 0  9993
2 47278  87.8934  18.9148 0001718  85.6177 274.5148 13.12441998245926
ONEWEB-0133             
1 47279U 20100X   26026.20224341  .00000376  00000+0  10087-2 0  9999
2 47279  87.8939  18.8278 0001653  83.8974 276.2343 13.12441211246114
ONEWEB-0134             
1 47280U 20100Y   26025.94317416 -.00000145  00000+0 -43963-3 0  9993
2 47280  87.8939  18.8760 0001517  90.4607 269.6695 13.12444231246052
ONEWEB-0135             
1 47281U 20100Z   26026.21932734 -.00000242  00000+0 -70785-3 0  9991
2 47281  87.8938  18.8596 0001386  88.3228 271.8060 13.12442181246118
